{"fetched_at":"2026-03-29T16:36:15Z","count":15609,"tles":[{"name":"STARLINK-33769","line1":"1 63773U 25089X   26087.86725606  .00034621  00000+0  12605-2 0  9994","line2":"2 63773  43.0018 296.6581 0001755 270.9286  89.1365 15.27610839 51889","category":"Starlink"}]}